start=new Date('2021-12-04T00:00:00.000Z').valueOf();
sats=[{"TLE_LINE1":"1 47173U 20088BD  21337.61537015 -.00001493  00000-0 -81362-4 0  9997","REV_AT_EPOCH":"5715","DECAY_DATE":null,"EPOCH":"2021-12-03T14:46:07.980960","RA_OF_ASC_NODE":"91.5698","ARG_OF_PERICENTER":"79.5570","MEAN_ANOMALY":"280.5582","NORAD_CAT_ID":"47173","SITE":"AFETR","OBJECT_ID":"2020-088BD","CENTER_NAME":"EARTH","ELEMENT_SET_NO":"999","MEAN_MOTION":"15.06403703","ECCENTRICITY":"0.00014500","BSTAR":"-0.00008136200000","FILE":"3231740","LAUNCH_DATE":"2020-11-25","MEAN_MOTION_DOT":"-0.00001493","PERIAPSIS":"546.198","RCS_SIZE":"LARGE","APOAPSIS":"548.206","CLASSIFICATION_TYPE":"U","GP_ID":"191011019","TLE_LINE2":"2 47173  53.0550  91.5698 0001450  79.5570 280.5582 15.06403703 57150","COUNTRY_CODE":"US","EPHEMERIS_TYPE":"0","OBJECT_NAME":"STARLINK-1890","PERIOD":"95.592","TIME_SYSTEM":"UTC","MEAN_ELEMENT_THEORY":"SGP4","REF_FRAME":"TEME","MEAN_MOTION_DDOT":"0.0000000000000","INCLINATION":"53.0550","OBJECT_TYPE":"PAYLOAD","SEMIMAJOR_AXIS":"6925.337"},{"OBJECT_NAME":"STARLINK-1891","EPHEMERIS_TYPE":"0","COUNTRY_CODE":"US","TLE_LINE2":"2 47174  53.0553  91.2554 0001272  86.8745 273.2389 15.06383801 57160","GP_ID":"191039224","MEAN_ELEMENT_THEORY":"SGP4","PERIOD":"95.593","TIME_SYSTEM":"UTC","MEAN_MOTION_DDOT":"0.0000000000000","REF_FRAME":"TEME","SEMIMAJOR_AXIS":"6925.398","INCLINATION":"53.0553","OBJECT_TYPE":"PAYLOAD","ARG_OF_PERICENTER":"86.8745","EPOCH":"2021-12-03T16:37:34.824288","RA_OF_ASC_NODE":"91.2554","DECAY_DATE":null,"REV_AT_EPOCH":"5716","TLE_LINE1":"1 47174U 20088BE  21337.69276417  .00002540  00000-0  18945-3 0  9990","ELEMENT_SET_NO":"999","CENTER_NAME":"EARTH","OBJECT_ID":"2020-088BE","SITE":"AFETR","NORAD_CAT_ID":"47174","MEAN_ANOMALY":"273.2389","ECCENTRICITY":"0.00012720","MEAN_MOTION":"15.06383801","CLASSIFICATION_TYPE":"U","APOAPSIS":"548.144","RCS_SIZE":"LARGE","LAUNCH_DATE":"2020-11-25","MEAN_MOTION_DOT":"0.00002540","PERIAPSIS":"546.382","BSTAR":"0.00018945000000","FILE":"3231910"},{"EPOCH":"2021-12-03T16:34:56.748576","RA_OF_ASC_NODE":"71.2458","ARG_OF_PERICENTER":"72.2322","TLE_LINE1":"1 47175U 20088BF  21337.69093459  .00000572  00000-0  57286-4 0  9999","REV_AT_EPOCH":"5744","DECAY_DATE":null,"CENTER_NAME":"EARTH","ELEMENT_SET_NO":"999","NORAD_CAT_ID":"47175","MEAN_ANOMALY":"287.8803","SITE":"AFETR","OBJECT_ID":"2020-088BF","ECCENTRICITY":"0.00012480","MEAN_MOTION":"15.06386211","MEAN_MOTION_DOT":"0.00000572","LAUNCH_DATE":"2020-11-25","PERIAPSIS":"546.392","RCS_SIZE":"LARGE","CLASSIFICATION_TYPE":"U","APOAPSIS":"548.120","FILE":"3231910","BSTAR":"0.00005728600000","COUNTRY_CODE":"US","EPHEMERIS_TYPE":"0","OBJECT_NAME":"STARLINK-1895","GP_ID":"191038975","TLE_LINE2":"2 47175  53.0560  71.2458 0001248  72.2322 287.8803 15.06386211 57444","MEAN_ELEMENT_THEORY":"SGP4","TIME_SYSTEM":"UTC","PERIOD":"95.593","REF_FRAME":"TEME","MEAN_MOTION_DDOT":"0.0000000000000","SEMIMAJOR_AXIS":"6925.391","OBJECT_TYPE":"PAYLOAD","INCLINATION":"53.0560"},{"REF_FRAME":"TEME","MEAN_MOTION_DDOT":"0.0000000000000","SEMIMAJOR_AXIS":"6925.371","OBJECT_TYPE":"PAYLOAD","INCLINATION":"53.0544","COUNTRY_CODE":"US","EPHEMERIS_TYPE":"0","OBJECT_NAME":"STARLINK-1907","GP_ID":"191037723","TLE_LINE2":"2 47177  53.0544  81.3290 0001417  78.7819 281.3329 15.06392672 57309","MEAN_ELEMENT_THEORY":"SGP4","TIME_SYSTEM":"UTC","PERIOD":"95.593","ECCENTRICITY":"0.00014170","MEAN_MOTION":"15.06392672","LAUNCH_DATE":"2020-11-25","PERIAPSIS":"546.255","MEAN_MOTION_DOT":"0.00000733","RCS_SIZE":"LARGE","CLASSIFICATION_TYPE":"U","APOAPSIS":"548.217","BSTAR":"0.00006813200000","FILE":"3231910","RA_OF_ASC_NODE":"81.3290","EPOCH":"2021-12-03T16:12:23.022144","ARG_OF_PERICENTER":"78.7819","TLE_LINE1":"1 47177U 20088BH  21337.67526646  .00000733  00000-0  68132-4 0  9999","REV_AT_EPOCH":"5730","DECAY_DATE":null,"CENTER_NAME":"EARTH","ELEMENT_SET_NO":"999","MEAN_ANOMALY":"281.3329","NORAD_CAT_ID":"47177","SITE":"AFETR","OBJECT_ID":"2020-088BH"},{"REF_FRAME":"TEME","MEAN_MOTION_DDOT":"0.0000000000000","OBJECT_TYPE":"PAYLOAD","INCLINATION":"53.0550","SEMIMAJOR_AXIS":"6925.360","GP_ID":"191010520","TLE_LINE2":"2 47178  53.0550  91.9990 0001459  80.1544 279.9609 15.06396240 57139","COUNTRY_CODE":"US","EPHEMERIS_TYPE":"0","OBJECT_NAME":"STARLINK-1912","TIME_SYSTEM":"UTC","PERIOD":"95.592","MEAN_ELEMENT_THEORY":"SGP4","MEAN_MOTION":"15.06396240","ECCENTRICITY":"0.00014590","FILE":"3231740","BSTAR":"0.00003464700000","MEAN_MOTION_DOT":"0.00000235","LAUNCH_DATE":"2020-11-25","PERIAPSIS":"546.215","RCS_SIZE":"LARGE","CLASSIFICATION_TYPE":"U","APOAPSIS":"548.235","TLE_LINE1":"1 47178U 20088BJ  21337.52321420  .00000235  00000-0  34647-4 0  9998","REV_AT_EPOCH":"5713","DECAY_DATE":null,"EPOCH":"2021-12-03T12:33:25.706880","RA_OF_ASC_NODE":"91.9990","ARG_OF_PERICENTER":"80.1544","NORAD_CAT_ID":"47178","MEAN_ANOMALY":"279.9609","SITE":"AFETR","OBJECT_ID":"2020-088BJ","CENTER_NAME":"EARTH","ELEMENT_SET_NO":"999"},{"APOAPSIS":"548.253","CLASSIFICATION_TYPE":"U","RCS_SIZE":"LARGE","LAUNCH_DATE":"2020-11-25","MEAN_MOTION_DOT":"-0.00000799","PERIAPSIS":"546.217","BSTAR":"-0.00003478700000","FILE":"3231910","ECCENTRICITY":"0.00014700","MEAN_MOTION":"15.06393155","ELEMENT_SET_NO":"999","CENTER_NAME":"EARTH","OBJECT_ID":"2020-088BK","SITE":"AFETR","NORAD_CAT_ID":"47179","MEAN_ANOMALY":"271.3546","ARG_OF_PERICENTER":"88.7611","EPOCH":"2021-12-03T20:13:53.331168","RA_OF_ASC_NODE":"100.5704","DECAY_DATE":null,"REV_AT_EPOCH":"5704","TLE_LINE1":"1 47179U 20088BK  21337.84297837 -.00000799  00000-0 -34787-4 0  9990","SEMIMAJOR_AXIS":"6925.370","INCLINATION":"53.0539","OBJECT_TYPE":"PAYLOAD","MEAN_MOTION_DDOT":"0.0000000000000","REF_FRAME":"TEME","MEAN_ELEMENT_THEORY":"SGP4","PERIOD":"95.593","TIME_SYSTEM":"UTC","OBJECT_NAME":"STARLINK-1913","EPHEMERIS_TYPE":"0","COUNTRY_CODE":"US","TLE_LINE2":"2 47179  53.0539 100.5704 0001470  88.7611 271.3546 15.06393155 57047","GP_ID":"191038725"},{"PERIOD":"95.593","TIME_SYSTEM":"UTC","MEAN_ELEMENT_THEORY":"SGP4","GP_ID":"191039475","TLE_LINE2":"2 47181  53.0559  71.5864 0001242  70.6177 289.4947 15.06392151 57433","COUNTRY_CODE":"US","EPHEMERIS_TYPE":"0","OBJECT_NAME":"STARLINK-1927","INCLINATION":"53.0559","OBJECT_TYPE":"PAYLOAD","SEMIMAJOR_AXIS":"6925.373","REF_FRAME":"TEME","MEAN_MOTION_DDOT":"0.0000000000000","NORAD_CAT_ID":"47181","MEAN_ANOMALY":"289.4947","SITE":"AFETR","OBJECT_ID":"2020-088BM","CENTER_NAME":"EARTH","ELEMENT_SET_NO":"999","TLE_LINE1":"1 47181U 20088BM  21337.61720666 -.00000601  00000-0 -21496-4 0  9994","REV_AT_EPOCH":"5743","DECAY_DATE":null,"EPOCH":"2021-12-03T14:48:46.655424","RA_OF_ASC_NODE":"71.5864","ARG_OF_PERICENTER":"70.6177","FILE":"3231910","BSTAR":"-0.00002149600000","LAUNCH_DATE":"2020-11-25","PERIAPSIS":"546.377","MEAN_MOTION_DOT":"-0.00000601","RCS_SIZE":"LARGE","APOAPSIS":"548.098","CLASSIFICATION_TYPE":"U","MEAN_MOTION":"15.06392151","ECCENTRICITY":"0.00012420"},{"COUNTRY_CODE":"US","EPHEMERIS_TYPE":"0","OBJECT_NAME":"STARLINK-1952","GP_ID":"191039493","TLE_LINE2":"2 47349  53.0468 171.9493 0001673  64.2222 295.8970 15.76634016 48937","MEAN_ELEMENT_THEORY":"SGP4","TIME_SYSTEM":"UTC","PERIOD":"91.334","REF_FRAME":"TEME","MEAN_MOTION_DDOT":"0.0000000000000","SEMIMAJOR_AXIS":"6718.122","OBJECT_TYPE":"PAYLOAD","INCLINATION":"53.0468","RA_OF_ASC_NODE":"171.9493","EPOCH":"2021-12-03T20:17:19.487616","ARG_OF_PERICENTER":"64.2222","TLE_LINE1":"1 47349U 21005A   21337.84536444 -.00031562  00000-0 -19031-3 0  9995","REV_AT_EPOCH":"4893","DECAY_DATE":null,"CENTER_NAME":"EARTH","ELEMENT_SET_NO":"999","MEAN_ANOMALY":"295.8970","NORAD_CAT_ID":"47349","SITE":"AFETR","OBJECT_ID":"2021-005A","ECCENTRICITY":"0.00016730","MEAN_MOTION":"15.76634016","LAUNCH_DATE":"2021-01-20","PERIAPSIS":"338.863","MEAN_MOTION_DOT":"-0.00031562","RCS_SIZE":"LARGE","APOAPSIS":"341.111","CLASSIFICATION_TYPE":"U","BSTAR":"-0.00019031000000","FILE":"3231910"},{"ELEMENT_SET_NO":"999","CENTER_NAME":"EARTH","OBJECT_ID":"2021-005B","NORAD_CAT_ID":"47350","MEAN_ANOMALY":"289.1278","SITE":"AFETR","EPOCH":"2021-12-03T20:31:07.821696","RA_OF_ASC_NODE":"210.5502","ARG_OF_PERICENTER":"70.9939","REV_AT_EPOCH":"4839","DECAY_DATE":null,"TLE_LINE1":"1 47350U 21005B   21337.85495164  .00000322  00000-0  40514-4 0  9990","APOAPSIS":"548.678","CLASSIFICATION_TYPE":"U","MEAN_MOTION_DOT":"0.00000322","LAUNCH_DATE":"2021-01-20","PERIAPSIS":"545.761","RCS_SIZE":"LARGE","FILE":"3231910","BSTAR":"0.00004051400000","ECCENTRICITY":"0.00021060","MEAN_MOTION":"15.06398068","MEAN_ELEMENT_THEORY":"SGP4","TIME_SYSTEM":"UTC","PERIOD":"95.592","EPHEMERIS_TYPE":"0","OBJECT_NAME":"STARLINK-2011","COUNTRY_CODE":"US","TLE_LINE2":"2 47350  53.0460 210.5502 0002106  70.9939 289.1278 15.06398068 48397","GP_ID":"191038241","SEMIMAJOR_AXIS":"6925.354","INCLINATION":"53.0460","OBJECT_TYPE":"PAYLOAD","MEAN_MOTION_DDOT":"0.0000000000000","REF_FRAME":"TEME"},{"OBJECT_ID":"2021-005C","NORAD_CAT_ID":"47351","MEAN_ANOMALY":"271.2977","SITE":"AFETR","ELEMENT_SET_NO":"999","CENTER_NAME":"EARTH","REV_AT_EPOCH":"4891","DECAY_DATE":null,"TLE_LINE1":"1 47351U 21005C   21337.61905882  .00001147  00000-0  95925-4 0  9990","RA_OF_ASC_NODE":"171.5709","EPOCH":"2021-12-03T14:51:26.682048","ARG_OF_PERICENTER":"88.8282","BSTAR":"0.00009592500000","FILE":"3231910","APOAPSIS":"548.845","CLASSIFICATION_TYPE":"U","PERIAPSIS":"545.572","LAUNCH_DATE":"2021-01-20","MEAN_MOTION_DOT":"0.00001147","RCS_SIZE":"LARGE","MEAN_MOTION":"15.06401504","ECCENTRICITY":"0.00023630","PERIOD":"95.592","TIME_SYSTEM":"UTC","MEAN_ELEMENT_THEORY":"SGP4","TLE_LINE2":"2 47351  53.0533 171.5709 0002363  88.8282 271.2977 15.06401504 48914","GP_ID":"191037992","EPHEMERIS_TYPE":"0","OBJECT_NAME":"STARLINK-2017","COUNTRY_CODE":"US","INCLINATION":"53.0533","OBJECT_TYPE":"PAYLOAD","SEMIMAJOR_AXIS":"6925.344","MEAN_MOTION_DDOT":"0.0000000000000","REF_FRAME":"TEME"}];
